0 FENGYUN 1C DEB
1 31321U 99025BPZ 13281.42072574  .00000165  00000-0  11473-3 0  3985
2 31321 099.0088 349.0317 0029485 184.1127 175.9983 14.11758160334900
0 FENGYUN 1C DEB
1 31321U 99025BPZ 13290.42160170  .00000198  00000-0  13274-3 0  3993
2 31321 099.0080 358.0686 0028863 158.0400 202.2255 14.11763079336176
